[{"OBJECT_NAME":"STARLINK-6198","OBJECT_ID":"2023-078B","EPOCH":"2026-03-09T22:24:02.398176","MEAN_MOTION":14.9832689,"ECCENTRICITY":0.00024824,"INCLINATION":70.0012,"RA_OF_ASC_NODE":323.7069,"ARG_OF_PERICENTER":251.903,"MEAN_ANOMALY":108.1859,"EPHEMERIS_TYPE":0,"CLASSIFICATION_TYPE":"U","NORAD_CAT_ID":56768,"ELEMENT_SET_NO":999,"REV_AT_EPOCH":15321,"BSTAR":-7.7001561e-5,"MEAN_MOTION_DOT":-1.011e-5,"MEAN_MOTION_DDOT":0},{"OBJECT_NAME":"METHANESAT","OBJECT_ID":"2024-043D","EPOCH":"2026-03-09T22:12:33.121440","MEAN_MOTION":14.97588653,"ECCENTRICITY":0.00100526,"INCLINATION":97.8288,"RA_OF_ASC_NODE":199.6058,"ARG_OF_PERICENTER":350.2517,"MEAN_ANOMALY":9.8508,"EPHEMERIS_TYPE":0,"CLASSIFICATION_TYPE":"U","NORAD_CAT_ID":59101,"ELEMENT_SET_NO":999,"REV_AT_EPOCH":10979,"BSTAR":0.00032562202,"MEAN_MOTION_DOT":3.748e-5,"MEAN_MOTION_DDOT":0}]
